HST                     
1 20580U 90037B   23310.58225334  .00011503  00000+0  59396-3 0  9999
2 20580  28.4704  39.5971 0003100 118.9643 266.5842 15.14735654643065
POLAR                   
1 23802U 96013A   23309.78173532  .00000185  00000+0  00000+0 0  9999
2 23802  78.9745 236.7664 5791281 241.4601  49.1323  1.29847271132461
SWAS                    
1 25560U 98071A   23310.56275430  .00006807  00000+0  58153-3 0  9999
2 25560  69.8975 145.7624 0010063 272.2028  87.7978 14.98051807353871
CXO                     
1 25867U 99040B   23313.38850794  .00000898  00000+0  00000+0 0  9999
2 25867  37.5986 178.2323 9037772 277.6394   0.0473  0.37818843 13726
XMM-NEWTON              
1 25989U 99066A   23306.55372892 -.00000028  00000+0  00000+0 0  9997
2 25989  68.6273 296.2738 5384634  80.5270  84.5564  0.50133286 32565
TERRA                   
1 25994U 99068A   23310.55210604  .00001493  00000+0  32452-3 0  9998
2 25994  98.0794  15.3155 0001818  24.2345 111.9720 14.59419234270424
CLUSTER II-FM7 (SAMBA)  
1 26410U 00041A   23312.71641894  .00000403  00000+0  00000+0 0  9994
2 26410 137.1877 354.0824 6902652 208.5182   0.6566  0.44199599 16067
CLUSTER II-FM6 (SALSA)  
1 26411U 00041B   23312.71921590  .00000472  00000+0  00000+0 0  9995
2 26411 143.5924   6.8114 8558255 220.8934   0.6994  0.44199130 27132
CLUSTER II-FM5 (RUMBA)  
1 26463U 00045A   23312.71474125  .00000628  00000+0  00000+0 0  9996
2 26463 146.3284   5.6788 8057681 220.5255   0.6586  0.44216994 15999
CLUSTER II-FM8 (TANGO)  
1 26464U 00045B   23312.71616907  .00000404  00000+0  00000+0 0  9995
2 26464 137.1938 354.0785 6899730 208.5296   0.6437  0.44222418 16073
ODIN                    
1 26702U 01007A   23310.57163513  .00019688  00000+0  99358-3 0  9993
2 26702  97.4990 322.5187 0008193 354.4126   5.7014 15.17123351242948
TIMED                   
1 26998U 01055B   23310.52154016  .00003619  00000+0  37582-3 0  9994
2 26998  74.0733 348.3494 0000771 313.8894  46.2224 14.90328318188495
INTEGRAL                
1 27540U 02048A   23309.22758139  .00000382  00000+0  00000+0 0  9997
2 27540  86.3608  31.7273 8716409 288.1037 190.2842  0.37583097 23034
CORIOLIS                
1 27640U 03001A   23310.55705898  .00000447  00000+0  23309-3 0  9993
2 27640  98.7165 316.3727 0015231  79.6134 280.6758 14.19338971 78915
SORCE                   
1 27651U 03004A   23310.57311435  .00008296  00000+0  79280-3 0  9999
2 27651  39.9933 260.1287 0017958  92.1502 268.1345 14.93108489128797
MOST                    
1 27843U 03031D   23310.55212135  .00000312  00000+0  16437-3 0  9993
2 27843  98.7091 315.7602 0010899 122.0074 238.2164 14.20857083 55269
SCISAT 1                
1 27858U 03036A   23310.29155893  .00002857  00000+0  39524-3 0  9990
2 27858  73.9325 262.7181 0007990 195.1040 164.9898 14.78557738 90316
SWIFT                   
1 28485U 04047A   23310.44087481  .00024171  00000+0  12806-2 0  9990
2 28485  20.5580 335.6257 0008943 274.8099  85.1315 15.13495818 40173
CLOUDSAT                
1 29107U 06016A   23310.51503989  .00001286  00000+0  25236-3 0  9998
2 29107  98.3933 282.8545 0003533 136.6140 223.5341 14.64461646933204
CALIPSO                 
1 29108U 06016B   23310.57499844  .00005483  00000+0  10391-2 0  9997
2 29108  98.3941 282.4337 0001400  83.2137 276.9224 14.64693462933208
HINODE (SOLAR-B)        
1 29479U 06041A   23310.55717861  .00001925  00000+0  36074-3 0  9990
2 29479  98.1019 324.0042 0019405  69.0156 291.3121 14.65806625915010
SJ-6C                   
1 29505U 06046A   23310.60497414  .00014026  00000+0  11209-2 0  9998
2 29505  97.7372 333.5045 0005658 154.1287 206.0220 15.00335489928473
SJ-6D                   
1 29506U 06046B   23310.54620639  .00006984  00000+0  62694-3 0  9998
2 29506  97.7616 332.5299 0001720  27.5832 332.5480 14.96038041927874
AGILE                   
1 31135U 07013A   23306.73482884  .00094196  00000+0  76465-3 0  9991
2 31135   2.4661 161.9705 0004529 243.5501 116.4088 15.68641268555081
FGRST (GLAST)           
1 33053U 08029A   23310.35538989  .00008159  00000+0  40785-3 0  9991
2 33053  25.5839 304.2963 0010940 305.8162  54.1357 15.15048348850573
WISE                    
1 36119U 09071A   23310.59991898  .00043973  00000+0  84543-3 0  9996
2 36119  97.1801 341.9686 0000396 111.6590 248.4703 15.47803331773501
SDO                     
1 36395U 10005A   23310.46174953 -.00000035  00000+0  00000+0 0  9997
2 36395  32.6645 101.1053 0001956 189.5628 179.2573  1.00272947 50501
CRYOSAT 2               
1 36508U 10013A   23310.57312335  .00000699  00000+0  17272-3 0  9990
2 36508  92.0342  46.8169 0002778   7.6693 352.4557 14.51908580719710
X-SAT                   
1 37389U 11015C   23310.57480830  .00000278  00000+0  13711-3 0  9994
2 37389  98.2983 321.8804 0012965 263.4500  96.5204 14.24587685651873
GCOM-W1 (SHIZUKU)       
1 38337U 12025A   23310.57806716  .00002030  00000+0  46073-3 0  9990
2 38337  98.2145 248.7623 0002106  79.6045  93.5566 14.57079099610166
NUSTAR                  
1 38358U 12031A   23309.39777355  .00012338  00000+0  10727-2 0  9992
2 38358   6.0264 272.9237 0009449 103.4945 256.6237 14.93396253620498
NEOSSAT                 
1 39089U 13009D   23310.51162891  .00000601  00000+0  22591-3 0  9992
2 39089  98.4047 138.7609 0010665 203.5144 156.5555 14.34975289559928
BRITE-AUSTRIA           
1 39091U 13009F   23310.46977123  .00000689  00000+0  25386-3 0  9992
2 39091  98.3860 139.1753 0009879 201.5924 158.4847 14.35596101560163
IRIS                    
1 39197U 13033A   23310.53423077  .00005278  00000+0  68549-3 0  9995
2 39197  97.9663 137.4726 0026396 184.4933 175.6047 14.80901991558975
HISAKI (SPRINT-A)       
1 39253U 13049A   23310.53803444  .00000195  00000+0  17276-3 0  9999
2 39253  29.7217  27.7177 0136690 206.5745 152.7767 13.55351665501941
CASSIOPE                
1 39265U 13055A   23310.61950609  .00042102  00000+0  98474-3 0  9997
2 39265  80.9573  82.4053 0546795 235.5971 119.2383 14.57440686525687
STSAT-3                 
1 39422U 13066G   23310.51297297  .00006276  00000+0  60484-3 0  9992
2 39422  97.4997 294.8336 0022580  33.3247 326.9389 14.93065524541426
SWARM B                 
1 39451U 13067A   23310.54653617  .00008646  00000+0  42100-3 0  9998
2 39451  87.7448 269.2694 0003122  93.3797 266.7804 15.18238379538046
SWARM A                 
1 39452U 13067B   23310.54192386  .00015791  00000+0  56124-3 0  9990
2 39452  87.3480  43.2729 0002234 108.6180 251.5312 15.28897432559554
SWARM C                 
1 39453U 13067C   23310.54180283  .00015721  00000+0  55878-3 0  9992
2 39453  87.3480  41.8707 0002234 108.3153 251.8339 15.28894729559516
BRITE-CA1 (TORONTO)     
1 40020U 14033L   23310.39008570  .00003474  00000+0  57469-3 0  9999
2 40020  97.8463  91.0154 0085842  86.5907 274.5113 14.68496739502015
OCO 2                   
1 40059U 14035A   23310.54084939  .00001746  00000+0  39791-3 0  9991
2 40059  98.2145 249.4646 0001846  97.5122 262.6286 14.57073033497172
BRITE-PL2 (HEWELIUSZ)   
1 40119U 14049B   23310.50278936  .00006183  00000+0  68831-3 0  9998
2 40119  97.8832  46.5223 0016858  24.6633 335.5386 14.87369401499310
RESURS P2               
1 40360U 14087A   23310.55905278  .00032848  00000+0  62395-3 0  9995
2 40360  97.1725  32.5418 0008009  56.0480 304.1531 15.48178437494821
MMS 1                   
1 40482U 15011A   23310.58335648 -.00000513  00000+0  00000+0 0  9995
2 40482  34.2470  36.4467 9147581 123.6459 314.6390  0.28249298  1309
MMS 2                   
1 40483U 15011B   23310.58335648 -.00000515  00000+0  00000+0 0  9998
2 40483  34.2584  36.4278 9149496 123.7088 314.6833  0.28191436  1359
MMS 3                   
1 40484U 15011C   23310.58335648 -.00000517  00000+0  00000+0 0  9991
2 40484  34.2532  36.4541 9145954 123.7668 314.5700  0.28188254  1351
MMS 4                   
1 40485U 15011D   23310.58335648 -.00000516  00000+0  00000+0 0  9991
2 40485  34.2428  36.4447 9147321 123.7358 314.6324  0.28190702  1351
ASTROSAT                
1 40930U 15052A   23310.57391232  .00004238  00000+0  48505-3 0  9991
2 40930   5.9957 158.3842 0007929 143.9411 216.1252 14.78061041438268
DAMPE                   
1 41173U 15078A   23310.55208943  .00003588  00000+0  14166-3 0  9996
2 41173  97.4175 300.4012 0012236 205.2128 154.8514 15.26117054438864
PISAT                   
1 41784U 16059B   23310.54415430  .00003242  00000+0  60777-3 0  9990
2 41784  97.8575 337.6581 0031108   6.4348 353.7249 14.65110763379903
HXMT (HUIYAN)           
1 42758U 17034A   23310.57802350  .00015153  00000+0  83049-3 0  9991
2 42758  43.0151  73.0199 0003945 220.1546 139.9010 15.13996711352929
FLYING LAPTOP           
1 42831U 17042G   23310.54220355  .00005993  00000+0  56988-3 0  9991
2 42831  97.3836 139.7232 0014728 106.6182 253.6657 14.93712082343730
ZHANGZHENG-1 (CSES)     
1 43194U 18015C   23310.64442098  .00031955  00000+0  14287-2 0  9998
2 43194  97.5835  87.5882 0012335 217.3584 142.6795 15.21184699319713
SALSAT                  
1 46495U 20068K   23310.40526250  .00016484  00000+0  10283-2 0  9995
2 46495  97.7867 260.1816 0015142   4.8406 355.2966 15.09502018170514
IXPE                    
1 49954U 21121A   23309.25375951  .00008688  00000+0  69486-3 0  9997
2 49954   0.2296 259.2898 0010107 186.3844 274.4411 14.95353661104144
